ONEWEB-0716             
1 55177U 23004AP  25272.81190622  .00000117  00000+0  26731-3 0  9991
2 55177  87.9062  57.6586 0001222  99.1487 260.9783 13.17650482133291
ONEWEB-0717             
1 55178U 23004AQ  25272.79502240  .00000057  00000+0  11372-3 0  9990
2 55178  87.9078  57.6258 0002364  85.7684 274.3718 13.17650182133343
ONEWEB-0719             
1 55179U 23004AR  25272.80516133  .00000118  00000+0  27008-3 0  9990
2 55179  87.9079  57.6068 0001500  88.9799 271.1504 13.17648294133290
ONEWEB-0530             
1 55796U 23029A   25272.71436263  .00000148  00000+0  33111-3 0  9992
2 55796  87.9248 326.4250 0002153  83.4017 276.7361 13.20773260126763
ONEWEB-0534             
1 55797U 23029B   25272.70173116  .00000097  00000+0  20737-3 0  9990
2 55797  87.9240 326.4306 0001728  95.3817 264.7513 13.20772115126769
ONEWEB-0556             
1 55798U 23029C   25272.63230286  .00000084  00000+0  17361-3 0  9990
2 55798  87.9249 326.4404 0001518  74.0220 286.1081 13.20773006126754
ONEWEB-0562             
1 55799U 23029D   25272.69543581 -.00000013  00000+0 -64342-4 0  9998
2 55799  87.9242 326.4139 0002136  72.1673 287.9693 13.20771085126765
ONEWEB-0563             
1 55800U 23029E   25272.84062126  .00000916  00000+0  22210-2 0  9995
2 55800  87.9252 326.4079 0001577  98.1224 262.0089 13.20767389126776
